[{"OBJECT_NAME":"GEISAT PRECURSOR","OBJECT_ID":"2023-084C","EPOCH":"2026-03-09T22:20:25.833120","MEAN_MOTION":15.33054389,"ECCENTRICITY":0.00051675,"INCLINATION":97.6055,"RA_OF_ASC_NODE":206.8263,"ARG_OF_PERICENTER":345.1842,"MEAN_ANOMALY":14.9247,"EPHEMERIS_TYPE":0,"CLASSIFICATION_TYPE":"U","NORAD_CAT_ID":56934,"ELEMENT_SET_NO":999,"REV_AT_EPOCH":15231,"BSTAR":0.00033857167,"MEAN_MOTION_DOT":0.00010736,"MEAN_MOTION_DDOT":0},{"OBJECT_NAME":"STARLINK-34634","OBJECT_ID":"2025-167B","EPOCH":"2026-03-09T07:04:02.665056","MEAN_MOTION":15.30199395,"ECCENTRICITY":0.00010469,"INCLINATION":53.1605,"RA_OF_ASC_NODE":26.1097,"ARG_OF_PERICENTER":89.7103,"MEAN_ANOMALY":270.4017,"EPHEMERIS_TYPE":0,"CLASSIFICATION_TYPE":"U","NORAD_CAT_ID":65079,"ELEMENT_SET_NO":999,"REV_AT_EPOCH":3345,"BSTAR":0.0012923783,"MEAN_MOTION_DOT":0.00038113,"MEAN_MOTION_DDOT":0}]
